H1 CPF  1  DGF 2022 02 04 11  5351 larets     NONE      
H2   304206 5557    27944 2022 02 04 00 00 00 2022 02 11 00 00 00    30 1 1  0 0 0
H5  0.0650
H9
10 0 59620  68400.000000  0      -2109957.108       6353587.305      -2235711.842
10 0 59620  68430.000000  0      -2084918.111       6432535.844      -2023055.462
10 0 59620  68460.000000  0      -2057429.726       6504832.864      -1808328.046
10 0 59620  68490.000000  0      -2027548.866       6570393.310      -1591749.117
10 0 59620  68520.000000  0      -1995335.266       6629139.280      -1373540.181
10 0 59620  68550.000000  0      -1960851.391       6681000.126      -1153924.495
10 0 59620  68580.000000  0      -1924162.340       6725912.547       -933126.832
10 0 59620  68610.000000  0      -1885335.747       6763820.672       -711373.248
10 0 59620  68640.000000  0      -1844441.682       6794676.136       -488890.843
10 0 59620  68670.000000  0      -1801552.542       6818438.153       -265907.517
10 0 59620  68700.000000  0      -1756742.945       6835073.573        -42651.724
10 0 59620  68730.000000  0      -1710089.625       6844556.926        180647.771
10 0 59620  68760.000000  0      -1661671.310       6846870.464        403762.149
10 0 59620  68790.000000  0      -1611568.614       6842004.178        626462.772
10 0 59620  68820.000000  0      -1559863.911       6829955.822        848521.436
10 0 59620  68850.000000  0      -1506641.222       6810730.914       1069710.611
10 0 59620  68880.000000  0      -1451986.088       6784342.736       1289803.683
10 0 59620  68910.000000  0      -1395985.446       6750812.321       1508575.197
10 0 59620  68940.000000  0      -1338727.504       6710168.435       1725801.089
10 0 59620  68970.000000  0      -1280301.618       6662447.544       1941258.931
10 0 59620  69000.000000  0      -1220798.158       6607693.781       2154728.157
10 0 59620  69030.000000  0      -1160308.387       6545958.896       2365990.298
10 0 59620  69060.000000  0      -1098924.328       6477302.202       2574829.211
10 0 59620  69090.000000  0      -1036738.640       6401790.511       2781031.303
10 0 59620  69120.000000  0       -973844.482       6319498.066       2984385.759
10 0 59620  69150.000000  0       -910335.388       6230506.449       3184684.759
10 0 59620  69180.000000  0       -846305.134       6134904.502       3381723.691
10 0 59620  69210.000000  0       -781847.612       6032788.225       3575301.359
10 0 59620  69240.000000  0       -717056.702       5924260.679       3765220.199
10 0 59620  69270.000000  0       -652026.149       5809431.873       3951286.481
10 0 59620  69300.000000  0       -586849.430       5688418.638       4133310.520
10 0 59620  69330.000000  0       -521619.629       5561344.496       4311106.870
10 0 59620  69360.000000  0       -456429.310       5428339.514       4484494.514
10 0 59620  69390.000000  0       -391370.390       5289540.156       4653297.043
10 0 59620  69420.000000  0       -326534.017       5145089.123       4817342.826
10 0 59620  69450.000000  0       -262010.446       4995135.203       4976465.178
10 0 59620  69480.000000  0       -197888.926       4839833.111       5130502.516
10 0 59620  69510.000000  0       -134257.580       4679343.323       5279298.521
10 0 59620  69540.000000  0        -71203.294       4513831.905       5422702.298
10 0 59620  69570.000000  0         -8811.606       4343470.336       5560568.524
10 0 59620  69600.000000  0         52833.409       4168435.315       5692757.596
10 0 59620  69630.000000  0        113649.240       3988908.570       5819135.765
10 0 59620  69660.000000  0        173555.050       3805076.654       5939575.267
10 0 59620  69690.000000  0        232471.775       3617130.750       6053954.439
10 0 59620  69720.000000  0        290322.222       3425266.457       6162157.835
10 0 59620  69750.000000  0        347031.167       3229683.588       6264076.334
10 0 59620  69780.000000  0        402525.443       3030585.956       6359607.242
10 0 59620  69810.000000  0        456734.035       2828181.157       6448654.391
10 0 59620  69840.000000  0        509588.165       2622680.348       6531128.226
10 0 59620  69870.000000  0        561021.372       2414298.026       6606945.892
10 0 59620  69900.000000  0        610969.595       2203251.797       6676031.309
10 0 59620  69930.000000  0        659371.248       1989762.146       6738315.240
10 0 59620  69960.000000  0        706167.291       1774052.204       6793735.353
10 0 59620  69990.000000  0        751301.300       1556347.511       6842236.277
10 0 59620  70020.000000  0        794719.532       1336875.786       6883769.647
10 0 59620  70050.000000  0        836370.984       1115866.684       6918294.148
10 0 59620  70080.000000  0        876207.454        893551.563       6945775.549
10 0 59620  70110.000000  0        914183.593        670163.241       6966186.735
10 0 59620  70140.000000  0        950256.955        445935.754       6979507.727
10 0 59620  70170.000000  0        984388.043        221104.118       6985725.708
10 0 59620  70200.000000  0       1016540.352         -4095.921       6984835.028
10 0 59620  70230.000000  0       1046680.402       -229428.137       6976837.212
10 0 59620  70260.000000  0       1074777.779       -454656.065       6961740.953
10 0 59620  70290.000000  0       1100805.159       -679543.257       6939562.100
10 0 59620  70320.000000  0       1124738.339       -903853.516       6910323.638
10 0 59620  70350.000000  0       1146556.254      -1127351.148       6874055.669
10 0 59620  70380.000000  0       1166240.997      -1349801.206       6830795.378
10 0 59620  70410.000000  0       1183777.833      -1570969.735       6780587.004
10 0 59620  70440.000000  0       1199155.205      -1790624.019       6723481.791
10 0 59620  70470.000000  0       1212364.742      -2008532.823       6659537.939
10 0 59620  70500.000000  0       1223401.262      -2224466.639       6588820.547
10 0 59620  70530.000000  0       1232262.767      -2438197.925       6511401.553
10 0 59620  70560.000000  0       1238950.436      -2649501.347       6427359.658
10 0 59620  70590.000000  0       1243468.612      -2858154.018       6336780.255
10 0 59620  70620.000000  0       1245824.781      -3063935.731       6239755.334
10 0 59620  70650.000000  0       1246029.561      -3266629.188       6136383.403
10 0 59620  70680.000000  0       1244096.671      -3466020.235       6026769.383
10 0 59620  70710.000000  0       1240042.911      -3661898.078       5911024.513
10 0 59620  70740.000000  0       1233888.126      -3854055.517       5789266.237
10 0 59620  70770.000000  0       1225655.176      -4042289.158       5661618.095
10 0 59620  70800.000000  0       1215369.893      -4226399.633       5528209.601
10 0 59620  70830.000000  0       1203061.037      -4406191.812       5389176.121
10 0 59620  70860.000000  0       1188760.256      -4581475.017       5244658.742
10 0 59620  70890.000000  0       1172502.030      -4752063.224       5094804.137
10 0 59620  70920.000000  0       1154323.618      -4917775.274       4939764.417
10 0 59620  70950.000000  0       1134265.005      -5078435.062       4779696.991
10 0 59620  70980.000000  0       1112368.834      -5233871.743       4614764.400
10 0 59620  71010.000000  0       1088680.342      -5383919.911       4445134.163
10 0 59620  71040.000000  0       1063247.294      -5528419.787       4270978.604
10 0 59620  71070.000000  0       1036119.909      -5667217.395       4092474.682
10 0 59620  71100.000000  0       1007350.787      -5800164.727       3909803.814
10 0 59620  71130.000000  0        976994.829      -5927119.916       3723151.690
10 0 59620  71160.000000  0        945109.154      -6047947.384       3532708.089
10 0 59620  71190.000000  0        911753.020      -6162518.003       3338666.686
10 0 59620  71220.000000  0        876987.729      -6270709.229       3141224.854
10 0 59620  71250.000000  0        840876.539      -6372405.252       2940583.472
10 0 59620  71280.000000  0        803484.570      -6467497.117       2736946.714
10 0 59620  71310.000000  0        764878.706      -6555882.854       2530521.841
10 0 59620  71340.000000  0        725127.495      -6637467.589       2321518.992
10 0 59620  71370.000000  0        684301.055      -6712163.654       2110150.969
10 0 59620  71400.000000  0        642470.965      -6779890.685       1896633.018
10 0 59620  71430.000000  0        599710.167      -6840575.718       1681182.612
10 0 59620  71460.000000  0        556092.854      -6894153.277       1464019.224
10 0 59620  71490.000000  0        511694.367      -6940565.453       1245364.101
10 0 59620  71520.000000  0        466591.076      -6979761.970       1025440.026
10 0 59620  71550.000000  0        420860.274      -7011700.242        804471.093
10 0 59620  71580.000000  0        374580.058      -7036345.426        582682.465
10 0 59620  71610.000000  0        327829.216      -7053670.455        360300.141
10 0 59620  71640.000000  0        280687.114      -7063656.071        137550.717
10 0 59620  71670.000000  0        233233.578      -7066290.844        -85338.844
10 0 59620  71700.000000  0        185548.781      -7061571.183       -308141.458
10 0 59620  71730.000000  0        137713.125      -7049501.343       -530630.147
10 0 59620  71760.000000  0         89807.122      -7030093.412       -752578.282
10 0 59620  71790.000000  0         41911.282      -7003367.303       -973759.813
10 0 59620  71820.000000  0         -5894.007      -6969350.723      -1193949.508
10 0 59620  71850.000000  0        -53528.594      -6928079.144      -1412923.180
10 0 59620  71880.000000  0       -100912.678      -6879595.767      -1630457.922
10 0 59620  71910.000000  0       -147966.926      -6823951.465      -1846332.334
10 0 59620  71940.000000  0       -194612.587      -6761204.732      -2060326.756
10 0 59620  71970.000000  0       -240771.603      -6691421.613      -2272223.494
99
